[{"OBJECT_NAME":"STARLINK-35715","OBJECT_ID":"2025-280W","EPOCH":"2026-03-09T21:33:23.567616","MEAN_MOTION":14.98331958,"ECCENTRICITY":0.00024315,"INCLINATION":70.0025,"RA_OF_ASC_NODE":334.0679,"ARG_OF_PERICENTER":264.7252,"MEAN_ANOMALY":95.3629,"EPHEMERIS_TYPE":0,"CLASSIFICATION_TYPE":"U","NORAD_CAT_ID":66841,"ELEMENT_SET_NO":999,"REV_AT_EPOCH":1610,"BSTAR":0.00033987855,"MEAN_MOTION_DOT":3.965e-5,"MEAN_MOTION_DDOT":0},{"OBJECT_NAME":"TIUNGSAT-1 (MO-46)","OBJECT_ID":"2000-057D","EPOCH":"2026-03-09T15:36:52.176096","MEAN_MOTION":15.01128781,"ECCENTRICITY":0.003692,"INCLINATION":64.5465,"RA_OF_ASC_NODE":82.7132,"ARG_OF_PERICENTER":302.2682,"MEAN_ANOMALY":57.4857,"EPHEMERIS_TYPE":0,"CLASSIFICATION_TYPE":"U","NORAD_CAT_ID":26548,"ELEMENT_SET_NO":999,"REV_AT_EPOCH":38128,"BSTAR":0.00030184,"MEAN_MOTION_DOT":3.762e-5,"MEAN_MOTION_DDOT":0}]
